GLOBALSTAR M069         
1 31573U 07020C   26201.30172442 -.00000053  00000+0  36132-3 0  9998
2 31573  52.0014 158.3977 0001522 221.2256 303.6484 12.23472403882850
GLOBALSTAR M072         
1 31574U 07020D   26201.42456091 -.00000090  00000+0 -75328-4 0  9990
2 31574  51.9951  11.7584 0001649  45.0920 331.1015 11.91658742878942
GLOBALSTAR M066         
1 32265U 07048C   26201.61594906 -.00000033  00000+0  51907-3 0  9999
2 32265  51.9612 321.9495 0005520 112.7664 260.2400 12.30390155864344
GLOBALSTAR M079         
1 37188U 10054A   26201.18044230 -.00000106  00000+0 -12522-4 0  9994
2 37188  52.0057   8.2335 0001124  85.7939  86.4029 12.62266428726719
GLOBALSTAR M074         
1 37189U 10054B   26201.49313380 -.00000108  00000+0 -23110-4 0  9991
2 37189  52.0035   6.5419 0000850 101.2624 292.4399 12.62262045727362
GLOBALSTAR M076         
1 37190U 10054C   26201.43683725 -.00000093  00000+0  60504-4 0  9990
2 37190  52.0050   6.9195 0001089  99.1566 278.5143 12.62262552727074
GLOBALSTAR M077         
1 37191U 10054D   26201.00659339 -.00000098  00000+0 -37162-3 0  9997
2 37191  51.9961  95.9950 0002181 233.9275 225.5768 11.67547200724971
GLOBALSTAR M075         
1 37192U 10054E   26201.00363302 -.00000102  00000+0  76658-5 0  9990
2 37192  51.9955  50.2739 0000786  71.7784  77.0132 12.62267915726083
GLOBALSTAR M073         
1 37193U 10054F   26201.60761280 -.00000098  00000+0  33742-4 0  9994
2 37193  52.0082 322.5622 0000990 105.3928 267.6127 12.62266940728152
GLOBALSTAR M083         
1 37739U 11033A   26201.46228733 -.00000094  00000+0  55294-4 0  9995
2 37739  51.9856 271.1887 0000696 111.3845 262.1674 12.62264350697150
GLOBALSTAR M088         
1 37740U 11033B   26201.30542031 -.00000098  00000+0  30622-4 0  9992
2 37740  52.0191 178.1717 0000131  38.5229 100.6158 12.62269494692673
GLOBALSTAR M091         
1 37741U 11033C   26201.56305481 -.00000086  00000+0  99156-4 0  9991
2 37741  51.9989 140.3041 0000553  32.8709 138.0964 12.62264310693499
GLOBALSTAR M085         
1 37742U 11033D   26201.47074899 -.00000090  00000+0  77624-4 0  9999
2 37742  52.0129  91.9068 0000878  50.8876 120.4269 12.62264496693996
GLOBALSTAR M081         
1 37743U 11033E   26201.09480976 -.00000091  00000+0  73001-4 0  9991
2 37743  51.9960  95.4494 0000752  61.8591  80.1790 12.62265367694098
GLOBALSTAR M089         
1 37744U 11033F   26201.06019925 -.00000105  00000+0 -56938-5 0  9999
2 37744  51.9941  49.7070 0000724  95.1052  70.7259 12.62267629694932
GLOBALSTAR M084         
1 38040U 11080A   26201.37078565 -.00000092  00000+0  64381-4 0  9994
2 38040  52.0011 276.2622 0000718 139.1732 298.4337 12.62263689672955
GLOBALSTAR M080         
1 38041U 11080B   26201.25333836 -.00000094  00000+0  56610-4 0  9995
2 38041  52.0060 278.3498 0000300  71.9505 321.3937 12.62257606673069
GLOBALSTAR M082         
1 38042U 11080C   26201.34335230 -.00000098  00000+0  32461-4 0  9998
2 38042  52.0052 233.5791 0000191  59.3982 313.2431 12.62264361673781
GLOBALSTAR M092         
1 38043U 11080D   26201.31931571 -.00000083  00000+0  11415-3 0  9995
2 38043  52.0105 324.0500 0000738 111.9825 270.8003 12.62267930672230
GLOBALSTAR M090         
1 38044U 11080E   26201.48256025 -.00000098  00000+0  30889-4 0  9991
2 38044  52.0095 227.1215 0000390  82.2437  82.1616 12.62269621673917
GLOBALSTAR M086         
1 38045U 11080F   26201.50359285 -.00000105  00000+0 -71233-5 0  9996
2 38045  51.9871 226.9319 0001419 119.1904  44.9170 12.62287860673862
GLOBALSTAR M097         
1 39072U 13005A   26201.10344019 -.00000100  00000+0  19913-4 0  9991
2 39072  52.0033 143.1347 0000537  45.2997 314.7913 12.62271277621060
GLOBALSTAR M093         
1 39073U 13005B   26201.55179952 -.00000087  00000+0  92331-4 0  9992
2 39073  52.0098 135.1300 0000773  51.5380 308.5556 12.62266399621074
GLOBALSTAR M094         
1 39074U 13005C   26200.99737041 -.00000098  00000+0  32314-4 0  9996
2 39074  51.9969  50.9021 0001040  70.4392 289.6587 12.62264286622612
GLOBALSTAR M096         
1 39075U 13005D   26201.16926256 -.00000087  00000+0  94130-4 0  9997
2 39075  52.0076  99.2062 0000829  51.6907 308.4034 12.62265831621558
GLOBALSTAR M078         
1 39076U 13005E   26201.30077543 -.00000105  00000+0 -58050-5 0  9994
2 39076  51.9847 182.7702 0000956 352.7591   7.3261 12.62260095620190
GLOBALSTAR M095         
1 39077U 13005F   26201.32744403 -.00000104  00000+0 -77282-6 0  9991
2 39077  52.0054 180.3391 0000573  21.1660 338.9230 12.62264080620052
GLOBALSTAR M087         
1 52888U 22064A   26201.34053352 -.00000086  00000+0  98540-4 0  9995
2 52888  52.0016 321.5199 0000898  91.1053 268.9917 12.62269449195328
